<?xml version="1.0"?>
<gpx version="1.1" creator="RouteFly sample" xmlns="http://www.topografix.com/GPX/1/1"><trk><name>Durmitor loop</name><trkseg><trkpt lat="43.130000" lon="19.093000"><ele>1500.0</ele><time>2026-07-12T08:00:00Z</time></trkpt><trkpt lat="43.130478" lon="19.093876"><ele>1500.6</ele><time>2026-07-12T08:00:12Z</time></trkpt><trkpt lat="43.130969" lon="19.094742"><ele>1502.4</ele><time>2026-07-12T08:00:24Z</time></trkpt><trkpt lat="43.131472" lon="19.095596"><ele>1505.3</ele><time>2026-07-12T08:00:36Z</time></trkpt><trkpt lat="43.131989" lon="19.096435"><ele>1509.4</ele><time>2026-07-12T08:00:48Z</time></trkpt><trkpt lat="43.132518" lon="19.097256"><ele>1514.7</ele><time>2026-07-12T08:01:00Z</time></trkpt><trkpt lat="43.133058" lon="19.098057"><ele>1521.1</ele><time>2026-07-12T08:01:12Z</time></trkpt><trkpt lat="43.133611" lon="19.098835"><ele>1528.6</ele><time>2026-07-12T08:01:24Z</time></trkpt><trkpt lat="43.134174" lon="19.099588"><ele>1537.1</ele><time>2026-07-12T08:01:36Z</time></trkpt><trkpt lat="43.134748" lon="19.100314"><ele>1546.7</ele><time>2026-07-12T08:01:48Z</time></trkpt><trkpt lat="43.135331" lon="19.101009"><ele>1557.3</ele><time>2026-07-12T08:02:00Z</time></trkpt><trkpt lat="43.135923" lon="19.101672"><ele>1568.8</ele><time>2026-07-12T08:02:12Z</time></trkpt><trkpt lat="43.136524" lon="19.102300"><ele>1581.3</ele><time>2026-07-12T08:02:24Z</time></trkpt><trkpt lat="43.137132" lon="19.102892"><ele>1594.6</ele><time>2026-07-12T08:02:36Z</time></trkpt><trkpt lat="43.137747" lon="19.103445"><ele>1608.8</ele><time>2026-07-12T08:02:48Z</time></trkpt><trkpt lat="43.138367" lon="19.103958"><ele>1623.7</ele><time>2026-07-12T08:03:00Z</time></trkpt><trkpt lat="43.138992" lon="19.104428"><ele>1639.3</ele><time>2026-07-12T08:03:12Z</time></trkpt><trkpt lat="43.139620" lon="19.104854"><ele>1655.5</ele><time>2026-07-12T08:03:24Z</time></trkpt><trkpt lat="43.140251" lon="19.105235"><ele>1672.3</ele><time>2026-07-12T08:03:36Z</time></trkpt><trkpt lat="43.140884" lon="19.105569"><ele>1689.6</ele><time>2026-07-12T08:03:48Z</time></trkpt><trkpt lat="43.141517" lon="19.105855"><ele>1707.3</ele><time>2026-07-12T08:04:00Z</time></trkpt><trkpt lat="43.142149" lon="19.106091"><ele>1725.4</ele><time>2026-07-12T08:04:12Z</time></trkpt><trkpt lat="43.142779" lon="19.106278"><ele>1743.8</ele><time>2026-07-12T08:04:24Z</time></trkpt><trkpt lat="43.143406" lon="19.106413"><ele>1762.4</ele><time>2026-07-12T08:04:36Z</time></trkpt><trkpt lat="43.144029" lon="19.106497"><ele>1781.2</ele><time>2026-07-12T08:04:48Z</time></trkpt><trkpt lat="43.144647" lon="19.106528"><ele>1800.0</ele><time>2026-07-12T08:05:00Z</time></trkpt><trkpt lat="43.145258" lon="19.106507"><ele>1818.8</ele><time>2026-07-12T08:05:12Z</time></trkpt><trkpt lat="43.145861" lon="19.106433"><ele>1837.6</ele><time>2026-07-12T08:05:24Z</time></trkpt><trkpt lat="43.146456" lon="19.106306"><ele>1856.2</ele><time>2026-07-12T08:05:36Z</time></trkpt><trkpt lat="43.147040" lon="19.106126"><ele>1874.6</ele><time>2026-07-12T08:05:48Z</time></trkpt><trkpt lat="43.147614" lon="19.105894"><ele>1892.7</ele><time>2026-07-12T08:06:00Z</time></trkpt><trkpt lat="43.148175" lon="19.105610"><ele>1910.4</ele><time>2026-07-12T08:06:12Z</time></trkpt><trkpt lat="43.148724" lon="19.105274"><ele>1927.7</ele><time>2026-07-12T08:06:24Z</time></trkpt><trkpt lat="43.149258" lon="19.104888"><ele>1944.5</ele><time>2026-07-12T08:06:36Z</time></trkpt><trkpt lat="43.149777" lon="19.104451"><ele>1960.7</ele><time>2026-07-12T08:06:48Z</time></trkpt><trkpt lat="43.150280" lon="19.103965"><ele>1976.3</ele><time>2026-07-12T08:07:00Z</time></trkpt><trkpt lat="43.150767" lon="19.103432"><ele>1991.2</ele><time>2026-07-12T08:07:12Z</time></trkpt><trkpt lat="43.151236" lon="19.102851"><ele>2005.4</ele><time>2026-07-12T08:07:24Z</time></trkpt><trkpt lat="43.151686" lon="19.102226"><ele>2018.7</ele><time>2026-07-12T08:07:36Z</time></trkpt><trkpt lat="43.152118" lon="19.101556"><ele>2031.2</ele><time>2026-07-12T08:07:48Z</time></trkpt><trkpt lat="43.152530" lon="19.100845"><ele>2042.7</ele><time>2026-07-12T08:08:00Z</time></trkpt><trkpt lat="43.152922" lon="19.100093"><ele>2053.3</ele><time>2026-07-12T08:08:12Z</time></trkpt><trkpt lat="43.153294" lon="19.099302"><ele>2062.9</ele><time>2026-07-12T08:08:24Z</time></trkpt><trkpt lat="43.153644" lon="19.098475"><ele>2071.4</ele><time>2026-07-12T08:08:36Z</time></trkpt><trkpt lat="43.153974" lon="19.097613"><ele>2078.9</ele><time>2026-07-12T08:08:48Z</time></trkpt><trkpt lat="43.154282" lon="19.096718"><ele>2085.3</ele><time>2026-07-12T08:09:00Z</time></trkpt><trkpt lat="43.154568" lon="19.095793"><ele>2090.6</ele><time>2026-07-12T08:09:12Z</time></trkpt><trkpt lat="43.154833" lon="19.094840"><ele>2094.7</ele><time>2026-07-12T08:09:24Z</time></trkpt><trkpt lat="43.155077" lon="19.093861"><ele>2097.6</ele><time>2026-07-12T08:09:36Z</time></trkpt><trkpt lat="43.155299" lon="19.092858"><ele>2099.4</ele><time>2026-07-12T08:09:48Z</time></trkpt><trkpt lat="43.155500" lon="19.091834"><ele>2100.0</ele><time>2026-07-12T08:10:00Z</time></trkpt><trkpt lat="43.155680" lon="19.090792"><ele>2099.4</ele><time>2026-07-12T08:10:12Z</time></trkpt><trkpt lat="43.155840" lon="19.089733"><ele>2097.6</ele><time>2026-07-12T08:10:24Z</time></trkpt><trkpt lat="43.155979" lon="19.088660"><ele>2094.7</ele><time>2026-07-12T08:10:36Z</time></trkpt><trkpt lat="43.156099" lon="19.087576"><ele>2090.6</ele><time>2026-07-12T08:10:48Z</time></trkpt><trkpt lat="43.156200" lon="19.086483"><ele>2085.3</ele><time>2026-07-12T08:11:00Z</time></trkpt><trkpt lat="43.156283" lon="19.085383"><ele>2078.9</ele><time>2026-07-12T08:11:12Z</time></trkpt><trkpt lat="43.156349" lon="19.084280"><ele>2071.4</ele><time>2026-07-12T08:11:24Z</time></trkpt><trkpt lat="43.156398" lon="19.083174"><ele>2062.9</ele><time>2026-07-12T08:11:36Z</time></trkpt><trkpt lat="43.156431" lon="19.082070"><ele>2053.3</ele><time>2026-07-12T08:11:48Z</time></trkpt><trkpt lat="43.156450" lon="19.080968"><ele>2042.7</ele><time>2026-07-12T08:12:00Z</time></trkpt><trkpt lat="43.156456" lon="19.079872"><ele>2031.2</ele><time>2026-07-12T08:12:12Z</time></trkpt><trkpt lat="43.156449" lon="19.078783"><ele>2018.7</ele><time>2026-07-12T08:12:24Z</time></trkpt><trkpt lat="43.156430" lon="19.077703"><ele>2005.4</ele><time>2026-07-12T08:12:36Z</time></trkpt><trkpt lat="43.156402" lon="19.076635"><ele>1991.2</ele><time>2026-07-12T08:12:48Z</time></trkpt><trkpt lat="43.156365" lon="19.075581"><ele>1976.3</ele><time>2026-07-12T08:13:00Z</time></trkpt><trkpt lat="43.156320" lon="19.074542"><ele>1960.7</ele><time>2026-07-12T08:13:12Z</time></trkpt><trkpt lat="43.156270" lon="19.073521"><ele>1944.5</ele><time>2026-07-12T08:13:24Z</time></trkpt><trkpt lat="43.156215" lon="19.072518"><ele>1927.7</ele><time>2026-07-12T08:13:36Z</time></trkpt><trkpt lat="43.156156" lon="19.071536"><ele>1910.4</ele><time>2026-07-12T08:13:48Z</time></trkpt><trkpt lat="43.156096" lon="19.070576"><ele>1892.7</ele><time>2026-07-12T08:14:00Z</time></trkpt><trkpt lat="43.156036" lon="19.069639"><ele>1874.6</ele><time>2026-07-12T08:14:12Z</time></trkpt><trkpt lat="43.155976" lon="19.068727"><ele>1856.2</ele><time>2026-07-12T08:14:24Z</time></trkpt><trkpt lat="43.155919" lon="19.067840"><ele>1837.6</ele><time>2026-07-12T08:14:36Z</time></trkpt><trkpt lat="43.155867" lon="19.066980"><ele>1818.8</ele><time>2026-07-12T08:14:48Z</time></trkpt><trkpt lat="43.155820" lon="19.066148"><ele>1800.0</ele><time>2026-07-12T08:15:00Z</time></trkpt><trkpt lat="43.155780" lon="19.065344"><ele>1781.2</ele><time>2026-07-12T08:15:12Z</time></trkpt><trkpt lat="43.155748" lon="19.064568"><ele>1762.4</ele><time>2026-07-12T08:15:24Z</time></trkpt><trkpt lat="43.155727" lon="19.063822"><ele>1743.8</ele><time>2026-07-12T08:15:36Z</time></trkpt><trkpt lat="43.155716" lon="19.063106"><ele>1725.4</ele><time>2026-07-12T08:15:48Z</time></trkpt><trkpt lat="43.155719" lon="19.062420"><ele>1707.3</ele><time>2026-07-12T08:16:00Z</time></trkpt><trkpt lat="43.155735" lon="19.061764"><ele>1689.6</ele><time>2026-07-12T08:16:12Z</time></trkpt><trkpt lat="43.155766" lon="19.061137"><ele>1672.3</ele><time>2026-07-12T08:16:24Z</time></trkpt><trkpt lat="43.155814" lon="19.060540"><ele>1655.5</ele><time>2026-07-12T08:16:36Z</time></trkpt><trkpt lat="43.155879" lon="19.059973"><ele>1639.3</ele><time>2026-07-12T08:16:48Z</time></trkpt><trkpt lat="43.155964" lon="19.059435"><ele>1623.7</ele><time>2026-07-12T08:17:00Z</time></trkpt><trkpt lat="43.156067" lon="19.058925"><ele>1608.8</ele><time>2026-07-12T08:17:12Z</time></trkpt><trkpt lat="43.156192" lon="19.058443"><ele>1594.6</ele><time>2026-07-12T08:17:24Z</time></trkpt><trkpt lat="43.156338" lon="19.057988"><ele>1581.3</ele><time>2026-07-12T08:17:36Z</time></trkpt><trkpt lat="43.156506" lon="19.057559"><ele>1568.8</ele><time>2026-07-12T08:17:48Z</time></trkpt><trkpt lat="43.156698" lon="19.057156"><ele>1557.3</ele><time>2026-07-12T08:18:00Z</time></trkpt><trkpt lat="43.156913" lon="19.056776"><ele>1546.7</ele><time>2026-07-12T08:18:12Z</time></trkpt><trkpt lat="43.157152" lon="19.056419"><ele>1537.1</ele><time>2026-07-12T08:18:24Z</time></trkpt><trkpt lat="43.157416" lon="19.056085"><ele>1528.6</ele><time>2026-07-12T08:18:36Z</time></trkpt><trkpt lat="43.157705" lon="19.055770"><ele>1521.1</ele><time>2026-07-12T08:18:48Z</time></trkpt><trkpt lat="43.158019" lon="19.055474"><ele>1514.7</ele><time>2026-07-12T08:19:00Z</time></trkpt><trkpt lat="43.158359" lon="19.055196"><ele>1509.4</ele><time>2026-07-12T08:19:12Z</time></trkpt><trkpt lat="43.158724" lon="19.054933"><ele>1505.3</ele><time>2026-07-12T08:19:24Z</time></trkpt><trkpt lat="43.159114" lon="19.054685"><ele>1502.4</ele><time>2026-07-12T08:19:36Z</time></trkpt><trkpt lat="43.159530" lon="19.054450"><ele>1500.6</ele><time>2026-07-12T08:19:48Z</time></trkpt><trkpt lat="43.159971" lon="19.054225"><ele>1500.0</ele><time>2026-07-12T08:20:00Z</time></trkpt><trkpt lat="43.160437" lon="19.054010"><ele>1500.6</ele><time>2026-07-12T08:20:12Z</time></trkpt><trkpt lat="43.160926" lon="19.053803"><ele>1502.4</ele><time>2026-07-12T08:20:24Z</time></trkpt><trkpt lat="43.161440" lon="19.053601"><ele>1505.3</ele><time>2026-07-12T08:20:36Z</time></trkpt><trkpt lat="43.161976" lon="19.053403"><ele>1509.4</ele><time>2026-07-12T08:20:48Z</time></trkpt><trkpt lat="43.162535" lon="19.053208"><ele>1514.7</ele><time>2026-07-12T08:21:00Z</time></trkpt><trkpt lat="43.163115" lon="19.053014"><ele>1521.1</ele><time>2026-07-12T08:21:12Z</time></trkpt><trkpt lat="43.163715" lon="19.052818"><ele>1528.6</ele><time>2026-07-12T08:21:24Z</time></trkpt><trkpt lat="43.164335" lon="19.052620"><ele>1537.1</ele><time>2026-07-12T08:21:36Z</time></trkpt><trkpt lat="43.164973" lon="19.052417"><ele>1546.7</ele><time>2026-07-12T08:21:48Z</time></trkpt><trkpt lat="43.165628" lon="19.052208"><ele>1557.3</ele><time>2026-07-12T08:22:00Z</time></trkpt><trkpt lat="43.166299" lon="19.051991"><ele>1568.8</ele><time>2026-07-12T08:22:12Z</time></trkpt><trkpt lat="43.166984" lon="19.051766"><ele>1581.3</ele><time>2026-07-12T08:22:24Z</time></trkpt><trkpt lat="43.167683" lon="19.051529"><ele>1594.6</ele><time>2026-07-12T08:22:36Z</time></trkpt><trkpt lat="43.168392" lon="19.051281"><ele>1608.8</ele><time>2026-07-12T08:22:48Z</time></trkpt><trkpt lat="43.169112" lon="19.051019"><ele>1623.7</ele><time>2026-07-12T08:23:00Z</time></trkpt><trkpt lat="43.169839" lon="19.050743"><ele>1639.3</ele><time>2026-07-12T08:23:12Z</time></trkpt><trkpt lat="43.170573" lon="19.050450"><ele>1655.5</ele><time>2026-07-12T08:23:24Z</time></trkpt><trkpt lat="43.171312" lon="19.050141"><ele>1672.3</ele><time>2026-07-12T08:23:36Z</time></trkpt><trkpt lat="43.172054" lon="19.049814"><ele>1689.6</ele><time>2026-07-12T08:23:48Z</time></trkpt><trkpt lat="43.172798" lon="19.049468"><ele>1707.3</ele><time>2026-07-12T08:24:00Z</time></trkpt><trkpt lat="43.173540" lon="19.049102"><ele>1725.4</ele><time>2026-07-12T08:24:12Z</time></trkpt><trkpt lat="43.174280" lon="19.048717"><ele>1743.8</ele><time>2026-07-12T08:24:24Z</time></trkpt><trkpt lat="43.175016" lon="19.048310"><ele>1762.4</ele><time>2026-07-12T08:24:36Z</time></trkpt><trkpt lat="43.175745" lon="19.047881"><ele>1781.2</ele><time>2026-07-12T08:24:48Z</time></trkpt><trkpt lat="43.176467" lon="19.047431"><ele>1800.0</ele><time>2026-07-12T08:25:00Z</time></trkpt><trkpt lat="43.177178" lon="19.046959"><ele>1818.8</ele><time>2026-07-12T08:25:12Z</time></trkpt><trkpt lat="43.177877" lon="19.046464"><ele>1837.6</ele><time>2026-07-12T08:25:24Z</time></trkpt><trkpt lat="43.178563" lon="19.045946"><ele>1856.2</ele><time>2026-07-12T08:25:36Z</time></trkpt><trkpt lat="43.179233" lon="19.045407"><ele>1874.6</ele><time>2026-07-12T08:25:48Z</time></trkpt><trkpt lat="43.179886" lon="19.044845"><ele>1892.7</ele><time>2026-07-12T08:26:00Z</time></trkpt><trkpt lat="43.180519" lon="19.044261"><ele>1910.4</ele><time>2026-07-12T08:26:12Z</time></trkpt><trkpt lat="43.181131" lon="19.043655"><ele>1927.7</ele><time>2026-07-12T08:26:24Z</time></trkpt><trkpt lat="43.181721" lon="19.043029"><ele>1944.5</ele><time>2026-07-12T08:26:36Z</time></trkpt><trkpt lat="43.182287" lon="19.042381"><ele>1960.7</ele><time>2026-07-12T08:26:48Z</time></trkpt><trkpt lat="43.182827" lon="19.041714"><ele>1976.3</ele><time>2026-07-12T08:27:00Z</time></trkpt><trkpt lat="43.183339" lon="19.041027"><ele>1991.2</ele><time>2026-07-12T08:27:12Z</time></trkpt><trkpt lat="43.183823" lon="19.040322"><ele>2005.4</ele><time>2026-07-12T08:27:24Z</time></trkpt><trkpt lat="43.184277" lon="19.039599"><ele>2018.7</ele><time>2026-07-12T08:27:36Z</time></trkpt><trkpt lat="43.184699" lon="19.038860"><ele>2031.2</ele><time>2026-07-12T08:27:48Z</time></trkpt><trkpt lat="43.185089" lon="19.038106"><ele>2042.7</ele><time>2026-07-12T08:28:00Z</time></trkpt><trkpt lat="43.185445" lon="19.037338"><ele>2053.3</ele><time>2026-07-12T08:28:12Z</time></trkpt><trkpt lat="43.185766" lon="19.036556"><ele>2062.9</ele><time>2026-07-12T08:28:24Z</time></trkpt><trkpt lat="43.186052" lon="19.035763"><ele>2071.4</ele><time>2026-07-12T08:28:36Z</time></trkpt><trkpt lat="43.186301" lon="19.034959"><ele>2078.9</ele><time>2026-07-12T08:28:48Z</time></trkpt><trkpt lat="43.186514" lon="19.034146"><ele>2085.3</ele><time>2026-07-12T08:29:00Z</time></trkpt><trkpt lat="43.186688" lon="19.033326"><ele>2090.6</ele><time>2026-07-12T08:29:12Z</time></trkpt><trkpt lat="43.186824" lon="19.032500"><ele>2094.7</ele><time>2026-07-12T08:29:24Z</time></trkpt><trkpt lat="43.186922" lon="19.031669"><ele>2097.6</ele><time>2026-07-12T08:29:36Z</time></trkpt><trkpt lat="43.186980" lon="19.030835"><ele>2099.4</ele><time>2026-07-12T08:29:48Z</time></trkpt><trkpt lat="43.187000" lon="19.030000"><ele>2100.0</ele><time>2026-07-12T08:30:00Z</time></trkpt><trkpt lat="43.186980" lon="19.029165"><ele>2099.4</ele><time>2026-07-12T08:30:12Z</time></trkpt><trkpt lat="43.186922" lon="19.028331"><ele>2097.6</ele><time>2026-07-12T08:30:24Z</time></trkpt><trkpt lat="43.186824" lon="19.027500"><ele>2094.7</ele><time>2026-07-12T08:30:36Z</time></trkpt><trkpt lat="43.186688" lon="19.026674"><ele>2090.6</ele><time>2026-07-12T08:30:48Z</time></trkpt><trkpt lat="43.186514" lon="19.025854"><ele>2085.3</ele><time>2026-07-12T08:31:00Z</time></trkpt><trkpt lat="43.186301" lon="19.025041"><ele>2078.9</ele><time>2026-07-12T08:31:12Z</time></trkpt><trkpt lat="43.186052" lon="19.024237"><ele>2071.4</ele><time>2026-07-12T08:31:24Z</time></trkpt><trkpt lat="43.185766" lon="19.023444"><ele>2062.9</ele><time>2026-07-12T08:31:36Z</time></trkpt><trkpt lat="43.185445" lon="19.022662"><ele>2053.3</ele><time>2026-07-12T08:31:48Z</time></trkpt><trkpt lat="43.185089" lon="19.021894"><ele>2042.7</ele><time>2026-07-12T08:32:00Z</time></trkpt><trkpt lat="43.184699" lon="19.021140"><ele>2031.2</ele><time>2026-07-12T08:32:12Z</time></trkpt><trkpt lat="43.184277" lon="19.020401"><ele>2018.7</ele><time>2026-07-12T08:32:24Z</time></trkpt><trkpt lat="43.183823" lon="19.019678"><ele>2005.4</ele><time>2026-07-12T08:32:36Z</time></trkpt><trkpt lat="43.183339" lon="19.018973"><ele>1991.2</ele><time>2026-07-12T08:32:48Z</time></trkpt><trkpt lat="43.182827" lon="19.018286"><ele>1976.3</ele><time>2026-07-12T08:33:00Z</time></trkpt><trkpt lat="43.182287" lon="19.017619"><ele>1960.7</ele><time>2026-07-12T08:33:12Z</time></trkpt><trkpt lat="43.181721" lon="19.016971"><ele>1944.5</ele><time>2026-07-12T08:33:24Z</time></trkpt><trkpt lat="43.181131" lon="19.016345"><ele>1927.7</ele><time>2026-07-12T08:33:36Z</time></trkpt><trkpt lat="43.180519" lon="19.015739"><ele>1910.4</ele><time>2026-07-12T08:33:48Z</time></trkpt><trkpt lat="43.179886" lon="19.015155"><ele>1892.7</ele><time>2026-07-12T08:34:00Z</time></trkpt><trkpt lat="43.179233" lon="19.014593"><ele>1874.6</ele><time>2026-07-12T08:34:12Z</time></trkpt><trkpt lat="43.178563" lon="19.014054"><ele>1856.2</ele><time>2026-07-12T08:34:24Z</time></trkpt><trkpt lat="43.177877" lon="19.013536"><ele>1837.6</ele><time>2026-07-12T08:34:36Z</time></trkpt><trkpt lat="43.177178" lon="19.013041"><ele>1818.8</ele><time>2026-07-12T08:34:48Z</time></trkpt><trkpt lat="43.176467" lon="19.012569"><ele>1800.0</ele><time>2026-07-12T08:35:00Z</time></trkpt><trkpt lat="43.175745" lon="19.012119"><ele>1781.2</ele><time>2026-07-12T08:35:12Z</time></trkpt><trkpt lat="43.175016" lon="19.011690"><ele>1762.4</ele><time>2026-07-12T08:35:24Z</time></trkpt><trkpt lat="43.174280" lon="19.011283"><ele>1743.8</ele><time>2026-07-12T08:35:36Z</time></trkpt><trkpt lat="43.173540" lon="19.010898"><ele>1725.4</ele><time>2026-07-12T08:35:48Z</time></trkpt><trkpt lat="43.172798" lon="19.010532"><ele>1707.3</ele><time>2026-07-12T08:36:00Z</time></trkpt><trkpt lat="43.172054" lon="19.010186"><ele>1689.6</ele><time>2026-07-12T08:36:12Z</time></trkpt><trkpt lat="43.171312" lon="19.009859"><ele>1672.3</ele><time>2026-07-12T08:36:24Z</time></trkpt><trkpt lat="43.170573" lon="19.009550"><ele>1655.5</ele><time>2026-07-12T08:36:36Z</time></trkpt><trkpt lat="43.169839" lon="19.009257"><ele>1639.3</ele><time>2026-07-12T08:36:48Z</time></trkpt><trkpt lat="43.169112" lon="19.008981"><ele>1623.7</ele><time>2026-07-12T08:37:00Z</time></trkpt><trkpt lat="43.168392" lon="19.008719"><ele>1608.8</ele><time>2026-07-12T08:37:12Z</time></trkpt><trkpt lat="43.167683" lon="19.008471"><ele>1594.6</ele><time>2026-07-12T08:37:24Z</time></trkpt><trkpt lat="43.166984" lon="19.008234"><ele>1581.3</ele><time>2026-07-12T08:37:36Z</time></trkpt><trkpt lat="43.166299" lon="19.008009"><ele>1568.8</ele><time>2026-07-12T08:37:48Z</time></trkpt><trkpt lat="43.165628" lon="19.007792"><ele>1557.3</ele><time>2026-07-12T08:38:00Z</time></trkpt><trkpt lat="43.164973" lon="19.007583"><ele>1546.7</ele><time>2026-07-12T08:38:12Z</time></trkpt><trkpt lat="43.164335" lon="19.007380"><ele>1537.1</ele><time>2026-07-12T08:38:24Z</time></trkpt><trkpt lat="43.163715" lon="19.007182"><ele>1528.6</ele><time>2026-07-12T08:38:36Z</time></trkpt><trkpt lat="43.163115" lon="19.006986"><ele>1521.1</ele><time>2026-07-12T08:38:48Z</time></trkpt><trkpt lat="43.162535" lon="19.006792"><ele>1514.7</ele><time>2026-07-12T08:39:00Z</time></trkpt><trkpt lat="43.161976" lon="19.006597"><ele>1509.4</ele><time>2026-07-12T08:39:12Z</time></trkpt><trkpt lat="43.161440" lon="19.006399"><ele>1505.3</ele><time>2026-07-12T08:39:24Z</time></trkpt><trkpt lat="43.160926" lon="19.006197"><ele>1502.4</ele><time>2026-07-12T08:39:36Z</time></trkpt><trkpt lat="43.160437" lon="19.005990"><ele>1500.6</ele><time>2026-07-12T08:39:48Z</time></trkpt><trkpt lat="43.159971" lon="19.005775"><ele>1500.0</ele><time>2026-07-12T08:40:00Z</time></trkpt><trkpt lat="43.159530" lon="19.005550"><ele>1500.6</ele><time>2026-07-12T08:40:12Z</time></trkpt><trkpt lat="43.159114" lon="19.005315"><ele>1502.4</ele><time>2026-07-12T08:40:24Z</time></trkpt><trkpt lat="43.158724" lon="19.005067"><ele>1505.3</ele><time>2026-07-12T08:40:36Z</time></trkpt><trkpt lat="43.158359" lon="19.004804"><ele>1509.4</ele><time>2026-07-12T08:40:48Z</time></trkpt><trkpt lat="43.158019" lon="19.004526"><ele>1514.7</ele><time>2026-07-12T08:41:00Z</time></trkpt><trkpt lat="43.157705" lon="19.004230"><ele>1521.1</ele><time>2026-07-12T08:41:12Z</time></trkpt><trkpt lat="43.157416" lon="19.003915"><ele>1528.6</ele><time>2026-07-12T08:41:24Z</time></trkpt><trkpt lat="43.157152" lon="19.003581"><ele>1537.1</ele><time>2026-07-12T08:41:36Z</time></trkpt><trkpt lat="43.156913" lon="19.003224"><ele>1546.7</ele><time>2026-07-12T08:41:48Z</time></trkpt><trkpt lat="43.156698" lon="19.002844"><ele>1557.3</ele><time>2026-07-12T08:42:00Z</time></trkpt><trkpt lat="43.156506" lon="19.002441"><ele>1568.8</ele><time>2026-07-12T08:42:12Z</time></trkpt><trkpt lat="43.156338" lon="19.002012"><ele>1581.3</ele><time>2026-07-12T08:42:24Z</time></trkpt><trkpt lat="43.156192" lon="19.001557"><ele>1594.6</ele><time>2026-07-12T08:42:36Z</time></trkpt><trkpt lat="43.156067" lon="19.001075"><ele>1608.8</ele><time>2026-07-12T08:42:48Z</time></trkpt><trkpt lat="43.155964" lon="19.000565"><ele>1623.7</ele><time>2026-07-12T08:43:00Z</time></trkpt><trkpt lat="43.155879" lon="19.000027"><ele>1639.3</ele><time>2026-07-12T08:43:12Z</time></trkpt><trkpt lat="43.155814" lon="18.999460"><ele>1655.5</ele><time>2026-07-12T08:43:24Z</time></trkpt><trkpt lat="43.155766" lon="18.998863"><ele>1672.3</ele><time>2026-07-12T08:43:36Z</time></trkpt><trkpt lat="43.155735" lon="18.998236"><ele>1689.6</ele><time>2026-07-12T08:43:48Z</time></trkpt><trkpt lat="43.155719" lon="18.997580"><ele>1707.3</ele><time>2026-07-12T08:44:00Z</time></trkpt><trkpt lat="43.155716" lon="18.996894"><ele>1725.4</ele><time>2026-07-12T08:44:12Z</time></trkpt><trkpt lat="43.155727" lon="18.996178"><ele>1743.8</ele><time>2026-07-12T08:44:24Z</time></trkpt><trkpt lat="43.155748" lon="18.995432"><ele>1762.4</ele><time>2026-07-12T08:44:36Z</time></trkpt><trkpt lat="43.155780" lon="18.994656"><ele>1781.2</ele><time>2026-07-12T08:44:48Z</time></trkpt><trkpt lat="43.155820" lon="18.993852"><ele>1800.0</ele><time>2026-07-12T08:45:00Z</time></trkpt><trkpt lat="43.155867" lon="18.993020"><ele>1818.8</ele><time>2026-07-12T08:45:12Z</time></trkpt><trkpt lat="43.155919" lon="18.992160"><ele>1837.6</ele><time>2026-07-12T08:45:24Z</time></trkpt><trkpt lat="43.155976" lon="18.991273"><ele>1856.2</ele><time>2026-07-12T08:45:36Z</time></trkpt><trkpt lat="43.156036" lon="18.990361"><ele>1874.6</ele><time>2026-07-12T08:45:48Z</time></trkpt><trkpt lat="43.156096" lon="18.989424"><ele>1892.7</ele><time>2026-07-12T08:46:00Z</time></trkpt><trkpt lat="43.156156" lon="18.988464"><ele>1910.4</ele><time>2026-07-12T08:46:12Z</time></trkpt><trkpt lat="43.156215" lon="18.987482"><ele>1927.7</ele><time>2026-07-12T08:46:24Z</time></trkpt><trkpt lat="43.156270" lon="18.986479"><ele>1944.5</ele><time>2026-07-12T08:46:36Z</time></trkpt><trkpt lat="43.156320" lon="18.985458"><ele>1960.7</ele><time>2026-07-12T08:46:48Z</time></trkpt><trkpt lat="43.156365" lon="18.984419"><ele>1976.3</ele><time>2026-07-12T08:47:00Z</time></trkpt><trkpt lat="43.156402" lon="18.983365"><ele>1991.2</ele><time>2026-07-12T08:47:12Z</time></trkpt><trkpt lat="43.156430" lon="18.982297"><ele>2005.4</ele><time>2026-07-12T08:47:24Z</time></trkpt><trkpt lat="43.156449" lon="18.981217"><ele>2018.7</ele><time>2026-07-12T08:47:36Z</time></trkpt><trkpt lat="43.156456" lon="18.980128"><ele>2031.2</ele><time>2026-07-12T08:47:48Z</time></trkpt><trkpt lat="43.156450" lon="18.979032"><ele>2042.7</ele><time>2026-07-12T08:48:00Z</time></trkpt><trkpt lat="43.156431" lon="18.977930"><ele>2053.3</ele><time>2026-07-12T08:48:12Z</time></trkpt><trkpt lat="43.156398" lon="18.976826"><ele>2062.9</ele><time>2026-07-12T08:48:24Z</time></trkpt><trkpt lat="43.156349" lon="18.975720"><ele>2071.4</ele><time>2026-07-12T08:48:36Z</time></trkpt><trkpt lat="43.156283" lon="18.974617"><ele>2078.9</ele><time>2026-07-12T08:48:48Z</time></trkpt><trkpt lat="43.156200" lon="18.973517"><ele>2085.3</ele><time>2026-07-12T08:49:00Z</time></trkpt><trkpt lat="43.156099" lon="18.972424"><ele>2090.6</ele><time>2026-07-12T08:49:12Z</time></trkpt><trkpt lat="43.155979" lon="18.971340"><ele>2094.7</ele><time>2026-07-12T08:49:24Z</time></trkpt><trkpt lat="43.155840" lon="18.970267"><ele>2097.6</ele><time>2026-07-12T08:49:36Z</time></trkpt><trkpt lat="43.155680" lon="18.969208"><ele>2099.4</ele><time>2026-07-12T08:49:48Z</time></trkpt><trkpt lat="43.155500" lon="18.968166"><ele>2100.0</ele><time>2026-07-12T08:50:00Z</time></trkpt><trkpt lat="43.155299" lon="18.967142"><ele>2099.4</ele><time>2026-07-12T08:50:12Z</time></trkpt><trkpt lat="43.155077" lon="18.966139"><ele>2097.6</ele><time>2026-07-12T08:50:24Z</time></trkpt><trkpt lat="43.154833" lon="18.965160"><ele>2094.7</ele><time>2026-07-12T08:50:36Z</time></trkpt><trkpt lat="43.154568" lon="18.964207"><ele>2090.6</ele><time>2026-07-12T08:50:48Z</time></trkpt><trkpt lat="43.154282" lon="18.963282"><ele>2085.3</ele><time>2026-07-12T08:51:00Z</time></trkpt><trkpt lat="43.153974" lon="18.962387"><ele>2078.9</ele><time>2026-07-12T08:51:12Z</time></trkpt><trkpt lat="43.153644" lon="18.961525"><ele>2071.4</ele><time>2026-07-12T08:51:24Z</time></trkpt><trkpt lat="43.153294" lon="18.960698"><ele>2062.9</ele><time>2026-07-12T08:51:36Z</time></trkpt><trkpt lat="43.152922" lon="18.959907"><ele>2053.3</ele><time>2026-07-12T08:51:48Z</time></trkpt><trkpt lat="43.152530" lon="18.959155"><ele>2042.7</ele><time>2026-07-12T08:52:00Z</time></trkpt><trkpt lat="43.152118" lon="18.958444"><ele>2031.2</ele><time>2026-07-12T08:52:12Z</time></trkpt><trkpt lat="43.151686" lon="18.957774"><ele>2018.7</ele><time>2026-07-12T08:52:24Z</time></trkpt><trkpt lat="43.151236" lon="18.957149"><ele>2005.4</ele><time>2026-07-12T08:52:36Z</time></trkpt><trkpt lat="43.150767" lon="18.956568"><ele>1991.2</ele><time>2026-07-12T08:52:48Z</time></trkpt><trkpt lat="43.150280" lon="18.956035"><ele>1976.3</ele><time>2026-07-12T08:53:00Z</time></trkpt><trkpt lat="43.149777" lon="18.955549"><ele>1960.7</ele><time>2026-07-12T08:53:12Z</time></trkpt><trkpt lat="43.149258" lon="18.955112"><ele>1944.5</ele><time>2026-07-12T08:53:24Z</time></trkpt><trkpt lat="43.148724" lon="18.954726"><ele>1927.7</ele><time>2026-07-12T08:53:36Z</time></trkpt><trkpt lat="43.148175" lon="18.954390"><ele>1910.4</ele><time>2026-07-12T08:53:48Z</time></trkpt><trkpt lat="43.147614" lon="18.954106"><ele>1892.7</ele><time>2026-07-12T08:54:00Z</time></trkpt><trkpt lat="43.147040" lon="18.953874"><ele>1874.6</ele><time>2026-07-12T08:54:12Z</time></trkpt><trkpt lat="43.146456" lon="18.953694"><ele>1856.2</ele><time>2026-07-12T08:54:24Z</time></trkpt><trkpt lat="43.145861" lon="18.953567"><ele>1837.6</ele><time>2026-07-12T08:54:36Z</time></trkpt><trkpt lat="43.145258" lon="18.953493"><ele>1818.8</ele><time>2026-07-12T08:54:48Z</time></trkpt><trkpt lat="43.144647" lon="18.953472"><ele>1800.0</ele><time>2026-07-12T08:55:00Z</time></trkpt><trkpt lat="43.144029" lon="18.953503"><ele>1781.2</ele><time>2026-07-12T08:55:12Z</time></trkpt><trkpt lat="43.143406" lon="18.953587"><ele>1762.4</ele><time>2026-07-12T08:55:24Z</time></trkpt><trkpt lat="43.142779" lon="18.953722"><ele>1743.8</ele><time>2026-07-12T08:55:36Z</time></trkpt><trkpt lat="43.142149" lon="18.953909"><ele>1725.4</ele><time>2026-07-12T08:55:48Z</time></trkpt><trkpt lat="43.141517" lon="18.954145"><ele>1707.3</ele><time>2026-07-12T08:56:00Z</time></trkpt><trkpt lat="43.140884" lon="18.954431"><ele>1689.6</ele><time>2026-07-12T08:56:12Z</time></trkpt><trkpt lat="43.140251" lon="18.954765"><ele>1672.3</ele><time>2026-07-12T08:56:24Z</time></trkpt><trkpt lat="43.139620" lon="18.955146"><ele>1655.5</ele><time>2026-07-12T08:56:36Z</time></trkpt><trkpt lat="43.138992" lon="18.955572"><ele>1639.3</ele><time>2026-07-12T08:56:48Z</time></trkpt><trkpt lat="43.138367" lon="18.956042"><ele>1623.7</ele><time>2026-07-12T08:57:00Z</time></trkpt><trkpt lat="43.137747" lon="18.956555"><ele>1608.8</ele><time>2026-07-12T08:57:12Z</time></trkpt><trkpt lat="43.137132" lon="18.957108"><ele>1594.6</ele><time>2026-07-12T08:57:24Z</time></trkpt><trkpt lat="43.136524" lon="18.957700"><ele>1581.3</ele><time>2026-07-12T08:57:36Z</time></trkpt><trkpt lat="43.135923" lon="18.958328"><ele>1568.8</ele><time>2026-07-12T08:57:48Z</time></trkpt><trkpt lat="43.135331" lon="18.958991"><ele>1557.3</ele><time>2026-07-12T08:58:00Z</time></trkpt><trkpt lat="43.134748" lon="18.959686"><ele>1546.7</ele><time>2026-07-12T08:58:12Z</time></trkpt><trkpt lat="43.134174" lon="18.960412"><ele>1537.1</ele><time>2026-07-12T08:58:24Z</time></trkpt><trkpt lat="43.133611" lon="18.961165"><ele>1528.6</ele><time>2026-07-12T08:58:36Z</time></trkpt><trkpt lat="43.133058" lon="18.961943"><ele>1521.1</ele><time>2026-07-12T08:58:48Z</time></trkpt><trkpt lat="43.132518" lon="18.962744"><ele>1514.7</ele><time>2026-07-12T08:59:00Z</time></trkpt><trkpt lat="43.131989" lon="18.963565"><ele>1509.4</ele><time>2026-07-12T08:59:12Z</time></trkpt><trkpt lat="43.131472" lon="18.964404"><ele>1505.3</ele><time>2026-07-12T08:59:24Z</time></trkpt><trkpt lat="43.130969" lon="18.965258"><ele>1502.4</ele><time>2026-07-12T08:59:36Z</time></trkpt><trkpt lat="43.130478" lon="18.966124"><ele>1500.6</ele><time>2026-07-12T08:59:48Z</time></trkpt><trkpt lat="43.130000" lon="18.967000"><ele>1500.0</ele><time>2026-07-12T09:00:00Z</time></trkpt><trkpt lat="43.129535" lon="18.967883"><ele>1500.6</ele><time>2026-07-12T09:00:12Z</time></trkpt><trkpt lat="43.129084" lon="18.968770"><ele>1502.4</ele><time>2026-07-12T09:00:24Z</time></trkpt><trkpt lat="43.128645" lon="18.969658"><ele>1505.3</ele><time>2026-07-12T09:00:36Z</time></trkpt><trkpt lat="43.128220" lon="18.970545"><ele>1509.4</ele><time>2026-07-12T09:00:48Z</time></trkpt><trkpt lat="43.127807" lon="18.971429"><ele>1514.7</ele><time>2026-07-12T09:01:00Z</time></trkpt><trkpt lat="43.127407" lon="18.972306"><ele>1521.1</ele><time>2026-07-12T09:01:12Z</time></trkpt><trkpt lat="43.127019" lon="18.973174"><ele>1528.6</ele><time>2026-07-12T09:01:24Z</time></trkpt><trkpt lat="43.126643" lon="18.974030"><ele>1537.1</ele><time>2026-07-12T09:01:36Z</time></trkpt><trkpt lat="43.126278" lon="18.974873"><ele>1546.7</ele><time>2026-07-12T09:01:48Z</time></trkpt><trkpt lat="43.125923" lon="18.975699"><ele>1557.3</ele><time>2026-07-12T09:02:00Z</time></trkpt><trkpt lat="43.125579" lon="18.976507"><ele>1568.8</ele><time>2026-07-12T09:02:12Z</time></trkpt><trkpt lat="43.125244" lon="18.977294"><ele>1581.3</ele><time>2026-07-12T09:02:24Z</time></trkpt><trkpt lat="43.124918" lon="18.978058"><ele>1594.6</ele><time>2026-07-12T09:02:36Z</time></trkpt><trkpt lat="43.124599" lon="18.978797"><ele>1608.8</ele><time>2026-07-12T09:02:48Z</time></trkpt><trkpt lat="43.124288" lon="18.979509"><ele>1623.7</ele><time>2026-07-12T09:03:00Z</time></trkpt><trkpt lat="43.123983" lon="18.980192"><ele>1639.3</ele><time>2026-07-12T09:03:12Z</time></trkpt><trkpt lat="43.123683" lon="18.980845"><ele>1655.5</ele><time>2026-07-12T09:03:24Z</time></trkpt><trkpt lat="43.123387" lon="18.981467"><ele>1672.3</ele><time>2026-07-12T09:03:36Z</time></trkpt><trkpt lat="43.123095" lon="18.982055"><ele>1689.6</ele><time>2026-07-12T09:03:48Z</time></trkpt><trkpt lat="43.122805" lon="18.982608"><ele>1707.3</ele><time>2026-07-12T09:04:00Z</time></trkpt><trkpt lat="43.122516" lon="18.983126"><ele>1725.4</ele><time>2026-07-12T09:04:12Z</time></trkpt><trkpt lat="43.122228" lon="18.983607"><ele>1743.8</ele><time>2026-07-12T09:04:24Z</time></trkpt><trkpt lat="43.121938" lon="18.984050"><ele>1762.4</ele><time>2026-07-12T09:04:36Z</time></trkpt><trkpt lat="43.121647" lon="18.984455"><ele>1781.2</ele><time>2026-07-12T09:04:48Z</time></trkpt><trkpt lat="43.121353" lon="18.984821"><ele>1800.0</ele><time>2026-07-12T09:05:00Z</time></trkpt><trkpt lat="43.121055" lon="18.985148"><ele>1818.8</ele><time>2026-07-12T09:05:12Z</time></trkpt><trkpt lat="43.120752" lon="18.985436"><ele>1837.6</ele><time>2026-07-12T09:05:24Z</time></trkpt><trkpt lat="43.120443" lon="18.985684"><ele>1856.2</ele><time>2026-07-12T09:05:36Z</time></trkpt><trkpt lat="43.120127" lon="18.985892"><ele>1874.6</ele><time>2026-07-12T09:05:48Z</time></trkpt><trkpt lat="43.119802" lon="18.986061"><ele>1892.7</ele><time>2026-07-12T09:06:00Z</time></trkpt><trkpt lat="43.119469" lon="18.986191"><ele>1910.4</ele><time>2026-07-12T09:06:12Z</time></trkpt><trkpt lat="43.119126" lon="18.986283"><ele>1927.7</ele><time>2026-07-12T09:06:24Z</time></trkpt><trkpt lat="43.118772" lon="18.986337"><ele>1944.5</ele><time>2026-07-12T09:06:36Z</time></trkpt><trkpt lat="43.118406" lon="18.986353"><ele>1960.7</ele><time>2026-07-12T09:06:48Z</time></trkpt><trkpt lat="43.118027" lon="18.986334"><ele>1976.3</ele><time>2026-07-12T09:07:00Z</time></trkpt><trkpt lat="43.117636" lon="18.986280"><ele>1991.2</ele><time>2026-07-12T09:07:12Z</time></trkpt><trkpt lat="43.117230" lon="18.986192"><ele>2005.4</ele><time>2026-07-12T09:07:24Z</time></trkpt><trkpt lat="43.116810" lon="18.986071"><ele>2018.7</ele><time>2026-07-12T09:07:36Z</time></trkpt><trkpt lat="43.116375" lon="18.985919"><ele>2031.2</ele><time>2026-07-12T09:07:48Z</time></trkpt><trkpt lat="43.115924" lon="18.985738"><ele>2042.7</ele><time>2026-07-12T09:08:00Z</time></trkpt><trkpt lat="43.115457" lon="18.985529"><ele>2053.3</ele><time>2026-07-12T09:08:12Z</time></trkpt><trkpt lat="43.114973" lon="18.985294"><ele>2062.9</ele><time>2026-07-12T09:08:24Z</time></trkpt><trkpt lat="43.114473" lon="18.985035"><ele>2071.4</ele><time>2026-07-12T09:08:36Z</time></trkpt><trkpt lat="43.113957" lon="18.984753"><ele>2078.9</ele><time>2026-07-12T09:08:48Z</time></trkpt><trkpt lat="43.113423" lon="18.984451"><ele>2085.3</ele><time>2026-07-12T09:09:00Z</time></trkpt><trkpt lat="43.112872" lon="18.984131"><ele>2090.6</ele><time>2026-07-12T09:09:12Z</time></trkpt><trkpt lat="43.112304" lon="18.983796"><ele>2094.7</ele><time>2026-07-12T09:09:24Z</time></trkpt><trkpt lat="43.111719" lon="18.983446"><ele>2097.6</ele><time>2026-07-12T09:09:36Z</time></trkpt><trkpt lat="43.111118" lon="18.983085"><ele>2099.4</ele><time>2026-07-12T09:09:48Z</time></trkpt><trkpt lat="43.110500" lon="18.982715"><ele>2100.0</ele><time>2026-07-12T09:10:00Z</time></trkpt><trkpt lat="43.109866" lon="18.982338"><ele>2099.4</ele><time>2026-07-12T09:10:12Z</time></trkpt><trkpt lat="43.109217" lon="18.981957"><ele>2097.6</ele><time>2026-07-12T09:10:24Z</time></trkpt><trkpt lat="43.108553" lon="18.981574"><ele>2094.7</ele><time>2026-07-12T09:10:36Z</time></trkpt><trkpt lat="43.107875" lon="18.981191"><ele>2090.6</ele><time>2026-07-12T09:10:48Z</time></trkpt><trkpt lat="43.107183" lon="18.980810"><ele>2085.3</ele><time>2026-07-12T09:11:00Z</time></trkpt><trkpt lat="43.106478" lon="18.980435"><ele>2078.9</ele><time>2026-07-12T09:11:12Z</time></trkpt><trkpt lat="43.105761" lon="18.980068"><ele>2071.4</ele><time>2026-07-12T09:11:24Z</time></trkpt><trkpt lat="43.105034" lon="18.979710"><ele>2062.9</ele><time>2026-07-12T09:11:36Z</time></trkpt><trkpt lat="43.104296" lon="18.979364"><ele>2053.3</ele><time>2026-07-12T09:11:48Z</time></trkpt><trkpt lat="43.103550" lon="18.979032"><ele>2042.7</ele><time>2026-07-12T09:12:00Z</time></trkpt><trkpt lat="43.102795" lon="18.978717"><ele>2031.2</ele><time>2026-07-12T09:12:12Z</time></trkpt><trkpt lat="43.102035" lon="18.978420"><ele>2018.7</ele><time>2026-07-12T09:12:24Z</time></trkpt><trkpt lat="43.101269" lon="18.978144"><ele>2005.4</ele><time>2026-07-12T09:12:36Z</time></trkpt><trkpt lat="43.100499" lon="18.977890"><ele>1991.2</ele><time>2026-07-12T09:12:48Z</time></trkpt><trkpt lat="43.099726" lon="18.977661"><ele>1976.3</ele><time>2026-07-12T09:13:00Z</time></trkpt><trkpt lat="43.098952" lon="18.977458"><ele>1960.7</ele><time>2026-07-12T09:13:12Z</time></trkpt><trkpt lat="43.098179" lon="18.977282"><ele>1944.5</ele><time>2026-07-12T09:13:24Z</time></trkpt><trkpt lat="43.097407" lon="18.977137"><ele>1927.7</ele><time>2026-07-12T09:13:36Z</time></trkpt><trkpt lat="43.096638" lon="18.977022"><ele>1910.4</ele><time>2026-07-12T09:13:48Z</time></trkpt><trkpt lat="43.095874" lon="18.976939"><ele>1892.7</ele><time>2026-07-12T09:14:00Z</time></trkpt><trkpt lat="43.095117" lon="18.976891"><ele>1874.6</ele><time>2026-07-12T09:14:12Z</time></trkpt><trkpt lat="43.094367" lon="18.976877"><ele>1856.2</ele><time>2026-07-12T09:14:24Z</time></trkpt><trkpt lat="43.093627" lon="18.976898"><ele>1837.6</ele><time>2026-07-12T09:14:36Z</time></trkpt><trkpt lat="43.092897" lon="18.976957"><ele>1818.8</ele><time>2026-07-12T09:14:48Z</time></trkpt><trkpt lat="43.092180" lon="18.977052"><ele>1800.0</ele><time>2026-07-12T09:15:00Z</time></trkpt><trkpt lat="43.091477" lon="18.977186"><ele>1781.2</ele><time>2026-07-12T09:15:12Z</time></trkpt><trkpt lat="43.090790" lon="18.977358"><ele>1762.4</ele><time>2026-07-12T09:15:24Z</time></trkpt><trkpt lat="43.090119" lon="18.977570"><ele>1743.8</ele><time>2026-07-12T09:15:36Z</time></trkpt><trkpt lat="43.089468" lon="18.977820"><ele>1725.4</ele><time>2026-07-12T09:15:48Z</time></trkpt><trkpt lat="43.088835" lon="18.978109"><ele>1707.3</ele><time>2026-07-12T09:16:00Z</time></trkpt><trkpt lat="43.088225" lon="18.978438"><ele>1689.6</ele><time>2026-07-12T09:16:12Z</time></trkpt><trkpt lat="43.087637" lon="18.978806"><ele>1672.3</ele><time>2026-07-12T09:16:24Z</time></trkpt><trkpt lat="43.087072" lon="18.979213"><ele>1655.5</ele><time>2026-07-12T09:16:36Z</time></trkpt><trkpt lat="43.086533" lon="18.979658"><ele>1639.3</ele><time>2026-07-12T09:16:48Z</time></trkpt><trkpt lat="43.086020" lon="18.980140"><ele>1623.7</ele><time>2026-07-12T09:17:00Z</time></trkpt><trkpt lat="43.085535" lon="18.980660"><ele>1608.8</ele><time>2026-07-12T09:17:12Z</time></trkpt><trkpt lat="43.085078" lon="18.981217"><ele>1594.6</ele><time>2026-07-12T09:17:24Z</time></trkpt><trkpt lat="43.084650" lon="18.981809"><ele>1581.3</ele><time>2026-07-12T09:17:36Z</time></trkpt><trkpt lat="43.084253" lon="18.982435"><ele>1568.8</ele><time>2026-07-12T09:17:48Z</time></trkpt><trkpt lat="43.083886" lon="18.983095"><ele>1557.3</ele><time>2026-07-12T09:18:00Z</time></trkpt><trkpt lat="43.083551" lon="18.983787"><ele>1546.7</ele><time>2026-07-12T09:18:12Z</time></trkpt><trkpt lat="43.083248" lon="18.984510"><ele>1537.1</ele><time>2026-07-12T09:18:24Z</time></trkpt><trkpt lat="43.082979" lon="18.985262"><ele>1528.6</ele><time>2026-07-12T09:18:36Z</time></trkpt><trkpt lat="43.082742" lon="18.986043"><ele>1521.1</ele><time>2026-07-12T09:18:48Z</time></trkpt><trkpt lat="43.082539" lon="18.986850"><ele>1514.7</ele><time>2026-07-12T09:19:00Z</time></trkpt><trkpt lat="43.082369" lon="18.987682"><ele>1509.4</ele><time>2026-07-12T09:19:12Z</time></trkpt><trkpt lat="43.082234" lon="18.988537"><ele>1505.3</ele><time>2026-07-12T09:19:24Z</time></trkpt><trkpt lat="43.082132" lon="18.989414"><ele>1502.4</ele><time>2026-07-12T09:19:36Z</time></trkpt><trkpt lat="43.082063" lon="18.990311"><ele>1500.6</ele><time>2026-07-12T09:19:48Z</time></trkpt><trkpt lat="43.082029" lon="18.991225"><ele>1500.0</ele><time>2026-07-12T09:20:00Z</time></trkpt><trkpt lat="43.082027" lon="18.992156"><ele>1500.6</ele><time>2026-07-12T09:20:12Z</time></trkpt><trkpt lat="43.082059" lon="18.993102"><ele>1502.4</ele><time>2026-07-12T09:20:24Z</time></trkpt><trkpt lat="43.082123" lon="18.994060"><ele>1505.3</ele><time>2026-07-12T09:20:36Z</time></trkpt><trkpt lat="43.082218" lon="18.995028"><ele>1509.4</ele><time>2026-07-12T09:20:48Z</time></trkpt><trkpt lat="43.082344" lon="18.996005"><ele>1514.7</ele><time>2026-07-12T09:21:00Z</time></trkpt><trkpt lat="43.082501" lon="18.996990"><ele>1521.1</ele><time>2026-07-12T09:21:12Z</time></trkpt><trkpt lat="43.082687" lon="18.997979"><ele>1528.6</ele><time>2026-07-12T09:21:24Z</time></trkpt><trkpt lat="43.082901" lon="18.998971"><ele>1537.1</ele><time>2026-07-12T09:21:36Z</time></trkpt><trkpt lat="43.083142" lon="18.999965"><ele>1546.7</ele><time>2026-07-12T09:21:48Z</time></trkpt><trkpt lat="43.083409" lon="19.000959"><ele>1557.3</ele><time>2026-07-12T09:22:00Z</time></trkpt><trkpt lat="43.083701" lon="19.001951"><ele>1568.8</ele><time>2026-07-12T09:22:12Z</time></trkpt><trkpt lat="43.084017" lon="19.002939"><ele>1581.3</ele><time>2026-07-12T09:22:24Z</time></trkpt><trkpt lat="43.084354" lon="19.003921"><ele>1594.6</ele><time>2026-07-12T09:22:36Z</time></trkpt><trkpt lat="43.084712" lon="19.004897"><ele>1608.8</ele><time>2026-07-12T09:22:48Z</time></trkpt><trkpt lat="43.085089" lon="19.005865"><ele>1623.7</ele><time>2026-07-12T09:23:00Z</time></trkpt><trkpt lat="43.085484" lon="19.006822"><ele>1639.3</ele><time>2026-07-12T09:23:12Z</time></trkpt><trkpt lat="43.085894" lon="19.007769"><ele>1655.5</ele><time>2026-07-12T09:23:24Z</time></trkpt><trkpt lat="43.086318" lon="19.008704"><ele>1672.3</ele><time>2026-07-12T09:23:36Z</time></trkpt><trkpt lat="43.086755" lon="19.009625"><ele>1689.6</ele><time>2026-07-12T09:23:48Z</time></trkpt><trkpt lat="43.087202" lon="19.010532"><ele>1707.3</ele><time>2026-07-12T09:24:00Z</time></trkpt><trkpt lat="43.087658" lon="19.011423"><ele>1725.4</ele><time>2026-07-12T09:24:12Z</time></trkpt><trkpt lat="43.088121" lon="19.012299"><ele>1743.8</ele><time>2026-07-12T09:24:24Z</time></trkpt><trkpt lat="43.088589" lon="19.013157"><ele>1762.4</ele><time>2026-07-12T09:24:36Z</time></trkpt><trkpt lat="43.089061" lon="19.013997"><ele>1781.2</ele><time>2026-07-12T09:24:48Z</time></trkpt><trkpt lat="43.089533" lon="19.014820"><ele>1800.0</ele><time>2026-07-12T09:25:00Z</time></trkpt><trkpt lat="43.090005" lon="19.015624"><ele>1818.8</ele><time>2026-07-12T09:25:12Z</time></trkpt><trkpt lat="43.090475" lon="19.016409"><ele>1837.6</ele><time>2026-07-12T09:25:24Z</time></trkpt><trkpt lat="43.090941" lon="19.017174"><ele>1856.2</ele><time>2026-07-12T09:25:36Z</time></trkpt><trkpt lat="43.091400" lon="19.017921"><ele>1874.6</ele><time>2026-07-12T09:25:48Z</time></trkpt><trkpt lat="43.091852" lon="19.018648"><ele>1892.7</ele><time>2026-07-12T09:26:00Z</time></trkpt><trkpt lat="43.092295" lon="19.019356"><ele>1910.4</ele><time>2026-07-12T09:26:12Z</time></trkpt><trkpt lat="43.092726" lon="19.020045"><ele>1927.7</ele><time>2026-07-12T09:26:24Z</time></trkpt><trkpt lat="43.093144" lon="19.020716"><ele>1944.5</ele><time>2026-07-12T09:26:36Z</time></trkpt><trkpt lat="43.093547" lon="19.021368"><ele>1960.7</ele><time>2026-07-12T09:26:48Z</time></trkpt><trkpt lat="43.093935" lon="19.022003"><ele>1976.3</ele><time>2026-07-12T09:27:00Z</time></trkpt><trkpt lat="43.094305" lon="19.022621"><ele>1991.2</ele><time>2026-07-12T09:27:12Z</time></trkpt><trkpt lat="43.094656" lon="19.023222"><ele>2005.4</ele><time>2026-07-12T09:27:24Z</time></trkpt><trkpt lat="43.094986" lon="19.023807"><ele>2018.7</ele><time>2026-07-12T09:27:36Z</time></trkpt><trkpt lat="43.095296" lon="19.024378"><ele>2031.2</ele><time>2026-07-12T09:27:48Z</time></trkpt><trkpt lat="43.095582" lon="19.024936"><ele>2042.7</ele><time>2026-07-12T09:28:00Z</time></trkpt><trkpt lat="43.095844" lon="19.025480"><ele>2053.3</ele><time>2026-07-12T09:28:12Z</time></trkpt><trkpt lat="43.096082" lon="19.026013"><ele>2062.9</ele><time>2026-07-12T09:28:24Z</time></trkpt><trkpt lat="43.096294" lon="19.026535"><ele>2071.4</ele><time>2026-07-12T09:28:36Z</time></trkpt><trkpt lat="43.096479" lon="19.027047"><ele>2078.9</ele><time>2026-07-12T09:28:48Z</time></trkpt><trkpt lat="43.096637" lon="19.027552"><ele>2085.3</ele><time>2026-07-12T09:29:00Z</time></trkpt><trkpt lat="43.096767" lon="19.028050"><ele>2090.6</ele><time>2026-07-12T09:29:12Z</time></trkpt><trkpt lat="43.096869" lon="19.028542"><ele>2094.7</ele><time>2026-07-12T09:29:24Z</time></trkpt><trkpt lat="43.096942" lon="19.029031"><ele>2097.6</ele><time>2026-07-12T09:29:36Z</time></trkpt><trkpt lat="43.096985" lon="19.029516"><ele>2099.4</ele><time>2026-07-12T09:29:48Z</time></trkpt><trkpt lat="43.097000" lon="19.030000"><ele>2100.0</ele><time>2026-07-12T09:30:00Z</time></trkpt><trkpt lat="43.096985" lon="19.030484"><ele>2099.4</ele><time>2026-07-12T09:30:12Z</time></trkpt><trkpt lat="43.096942" lon="19.030969"><ele>2097.6</ele><time>2026-07-12T09:30:24Z</time></trkpt><trkpt lat="43.096869" lon="19.031458"><ele>2094.7</ele><time>2026-07-12T09:30:36Z</time></trkpt><trkpt lat="43.096767" lon="19.031950"><ele>2090.6</ele><time>2026-07-12T09:30:48Z</time></trkpt><trkpt lat="43.096637" lon="19.032448"><ele>2085.3</ele><time>2026-07-12T09:31:00Z</time></trkpt><trkpt lat="43.096479" lon="19.032953"><ele>2078.9</ele><time>2026-07-12T09:31:12Z</time></trkpt><trkpt lat="43.096294" lon="19.033465"><ele>2071.4</ele><time>2026-07-12T09:31:24Z</time></trkpt><trkpt lat="43.096082" lon="19.033987"><ele>2062.9</ele><time>2026-07-12T09:31:36Z</time></trkpt><trkpt lat="43.095844" lon="19.034520"><ele>2053.3</ele><time>2026-07-12T09:31:48Z</time></trkpt><trkpt lat="43.095582" lon="19.035064"><ele>2042.7</ele><time>2026-07-12T09:32:00Z</time></trkpt><trkpt lat="43.095296" lon="19.035622"><ele>2031.2</ele><time>2026-07-12T09:32:12Z</time></trkpt><trkpt lat="43.094986" lon="19.036193"><ele>2018.7</ele><time>2026-07-12T09:32:24Z</time></trkpt><trkpt lat="43.094656" lon="19.036778"><ele>2005.4</ele><time>2026-07-12T09:32:36Z</time></trkpt><trkpt lat="43.094305" lon="19.037379"><ele>1991.2</ele><time>2026-07-12T09:32:48Z</time></trkpt><trkpt lat="43.093935" lon="19.037997"><ele>1976.3</ele><time>2026-07-12T09:33:00Z</time></trkpt><trkpt lat="43.093547" lon="19.038632"><ele>1960.7</ele><time>2026-07-12T09:33:12Z</time></trkpt><trkpt lat="43.093144" lon="19.039284"><ele>1944.5</ele><time>2026-07-12T09:33:24Z</time></trkpt><trkpt lat="43.092726" lon="19.039955"><ele>1927.7</ele><time>2026-07-12T09:33:36Z</time></trkpt><trkpt lat="43.092295" lon="19.040644"><ele>1910.4</ele><time>2026-07-12T09:33:48Z</time></trkpt><trkpt lat="43.091852" lon="19.041352"><ele>1892.7</ele><time>2026-07-12T09:34:00Z</time></trkpt><trkpt lat="43.091400" lon="19.042079"><ele>1874.6</ele><time>2026-07-12T09:34:12Z</time></trkpt><trkpt lat="43.090941" lon="19.042826"><ele>1856.2</ele><time>2026-07-12T09:34:24Z</time></trkpt><trkpt lat="43.090475" lon="19.043591"><ele>1837.6</ele><time>2026-07-12T09:34:36Z</time></trkpt><trkpt lat="43.090005" lon="19.044376"><ele>1818.8</ele><time>2026-07-12T09:34:48Z</time></trkpt><trkpt lat="43.089533" lon="19.045180"><ele>1800.0</ele><time>2026-07-12T09:35:00Z</time></trkpt><trkpt lat="43.089061" lon="19.046003"><ele>1781.2</ele><time>2026-07-12T09:35:12Z</time></trkpt><trkpt lat="43.088589" lon="19.046843"><ele>1762.4</ele><time>2026-07-12T09:35:24Z</time></trkpt><trkpt lat="43.088121" lon="19.047701"><ele>1743.8</ele><time>2026-07-12T09:35:36Z</time></trkpt><trkpt lat="43.087658" lon="19.048577"><ele>1725.4</ele><time>2026-07-12T09:35:48Z</time></trkpt><trkpt lat="43.087202" lon="19.049468"><ele>1707.3</ele><time>2026-07-12T09:36:00Z</time></trkpt><trkpt lat="43.086755" lon="19.050375"><ele>1689.6</ele><time>2026-07-12T09:36:12Z</time></trkpt><trkpt lat="43.086318" lon="19.051296"><ele>1672.3</ele><time>2026-07-12T09:36:24Z</time></trkpt><trkpt lat="43.085894" lon="19.052231"><ele>1655.5</ele><time>2026-07-12T09:36:36Z</time></trkpt><trkpt lat="43.085484" lon="19.053178"><ele>1639.3</ele><time>2026-07-12T09:36:48Z</time></trkpt><trkpt lat="43.085089" lon="19.054135"><ele>1623.7</ele><time>2026-07-12T09:37:00Z</time></trkpt><trkpt lat="43.084712" lon="19.055103"><ele>1608.8</ele><time>2026-07-12T09:37:12Z</time></trkpt><trkpt lat="43.084354" lon="19.056079"><ele>1594.6</ele><time>2026-07-12T09:37:24Z</time></trkpt><trkpt lat="43.084017" lon="19.057061"><ele>1581.3</ele><time>2026-07-12T09:37:36Z</time></trkpt><trkpt lat="43.083701" lon="19.058049"><ele>1568.8</ele><time>2026-07-12T09:37:48Z</time></trkpt><trkpt lat="43.083409" lon="19.059041"><ele>1557.3</ele><time>2026-07-12T09:38:00Z</time></trkpt><trkpt lat="43.083142" lon="19.060035"><ele>1546.7</ele><time>2026-07-12T09:38:12Z</time></trkpt><trkpt lat="43.082901" lon="19.061029"><ele>1537.1</ele><time>2026-07-12T09:38:24Z</time></trkpt><trkpt lat="43.082687" lon="19.062021"><ele>1528.6</ele><time>2026-07-12T09:38:36Z</time></trkpt><trkpt lat="43.082501" lon="19.063010"><ele>1521.1</ele><time>2026-07-12T09:38:48Z</time></trkpt><trkpt lat="43.082344" lon="19.063995"><ele>1514.7</ele><time>2026-07-12T09:39:00Z</time></trkpt><trkpt lat="43.082218" lon="19.064972"><ele>1509.4</ele><time>2026-07-12T09:39:12Z</time></trkpt><trkpt lat="43.082123" lon="19.065940"><ele>1505.3</ele><time>2026-07-12T09:39:24Z</time></trkpt><trkpt lat="43.082059" lon="19.066898"><ele>1502.4</ele><time>2026-07-12T09:39:36Z</time></trkpt><trkpt lat="43.082027" lon="19.067844"><ele>1500.6</ele><time>2026-07-12T09:39:48Z</time></trkpt><trkpt lat="43.082029" lon="19.068775"><ele>1500.0</ele><time>2026-07-12T09:40:00Z</time></trkpt><trkpt lat="43.082063" lon="19.069689"><ele>1500.6</ele><time>2026-07-12T09:40:12Z</time></trkpt><trkpt lat="43.082132" lon="19.070586"><ele>1502.4</ele><time>2026-07-12T09:40:24Z</time></trkpt><trkpt lat="43.082234" lon="19.071463"><ele>1505.3</ele><time>2026-07-12T09:40:36Z</time></trkpt><trkpt lat="43.082369" lon="19.072318"><ele>1509.4</ele><time>2026-07-12T09:40:48Z</time></trkpt><trkpt lat="43.082539" lon="19.073150"><ele>1514.7</ele><time>2026-07-12T09:41:00Z</time></trkpt><trkpt lat="43.082742" lon="19.073957"><ele>1521.1</ele><time>2026-07-12T09:41:12Z</time></trkpt><trkpt lat="43.082979" lon="19.074738"><ele>1528.6</ele><time>2026-07-12T09:41:24Z</time></trkpt><trkpt lat="43.083248" lon="19.075490"><ele>1537.1</ele><time>2026-07-12T09:41:36Z</time></trkpt><trkpt lat="43.083551" lon="19.076213"><ele>1546.7</ele><time>2026-07-12T09:41:48Z</time></trkpt><trkpt lat="43.083886" lon="19.076905"><ele>1557.3</ele><time>2026-07-12T09:42:00Z</time></trkpt><trkpt lat="43.084253" lon="19.077565"><ele>1568.8</ele><time>2026-07-12T09:42:12Z</time></trkpt><trkpt lat="43.084650" lon="19.078191"><ele>1581.3</ele><time>2026-07-12T09:42:24Z</time></trkpt><trkpt lat="43.085078" lon="19.078783"><ele>1594.6</ele><time>2026-07-12T09:42:36Z</time></trkpt><trkpt lat="43.085535" lon="19.079340"><ele>1608.8</ele><time>2026-07-12T09:42:48Z</time></trkpt><trkpt lat="43.086020" lon="19.079860"><ele>1623.7</ele><time>2026-07-12T09:43:00Z</time></trkpt><trkpt lat="43.086533" lon="19.080342"><ele>1639.3</ele><time>2026-07-12T09:43:12Z</time></trkpt><trkpt lat="43.087072" lon="19.080787"><ele>1655.5</ele><time>2026-07-12T09:43:24Z</time></trkpt><trkpt lat="43.087637" lon="19.081194"><ele>1672.3</ele><time>2026-07-12T09:43:36Z</time></trkpt><trkpt lat="43.088225" lon="19.081562"><ele>1689.6</ele><time>2026-07-12T09:43:48Z</time></trkpt><trkpt lat="43.088835" lon="19.081891"><ele>1707.3</ele><time>2026-07-12T09:44:00Z</time></trkpt><trkpt lat="43.089468" lon="19.082180"><ele>1725.4</ele><time>2026-07-12T09:44:12Z</time></trkpt><trkpt lat="43.090119" lon="19.082430"><ele>1743.8</ele><time>2026-07-12T09:44:24Z</time></trkpt><trkpt lat="43.090790" lon="19.082642"><ele>1762.4</ele><time>2026-07-12T09:44:36Z</time></trkpt><trkpt lat="43.091477" lon="19.082814"><ele>1781.2</ele><time>2026-07-12T09:44:48Z</time></trkpt><trkpt lat="43.092180" lon="19.082948"><ele>1800.0</ele><time>2026-07-12T09:45:00Z</time></trkpt><trkpt lat="43.092897" lon="19.083043"><ele>1818.8</ele><time>2026-07-12T09:45:12Z</time></trkpt><trkpt lat="43.093627" lon="19.083102"><ele>1837.6</ele><time>2026-07-12T09:45:24Z</time></trkpt><trkpt lat="43.094367" lon="19.083123"><ele>1856.2</ele><time>2026-07-12T09:45:36Z</time></trkpt><trkpt lat="43.095117" lon="19.083109"><ele>1874.6</ele><time>2026-07-12T09:45:48Z</time></trkpt><trkpt lat="43.095874" lon="19.083061"><ele>1892.7</ele><time>2026-07-12T09:46:00Z</time></trkpt><trkpt lat="43.096638" lon="19.082978"><ele>1910.4</ele><time>2026-07-12T09:46:12Z</time></trkpt><trkpt lat="43.097407" lon="19.082863"><ele>1927.7</ele><time>2026-07-12T09:46:24Z</time></trkpt><trkpt lat="43.098179" lon="19.082718"><ele>1944.5</ele><time>2026-07-12T09:46:36Z</time></trkpt><trkpt lat="43.098952" lon="19.082542"><ele>1960.7</ele><time>2026-07-12T09:46:48Z</time></trkpt><trkpt lat="43.099726" lon="19.082339"><ele>1976.3</ele><time>2026-07-12T09:47:00Z</time></trkpt><trkpt lat="43.100499" lon="19.082110"><ele>1991.2</ele><time>2026-07-12T09:47:12Z</time></trkpt><trkpt lat="43.101269" lon="19.081856"><ele>2005.4</ele><time>2026-07-12T09:47:24Z</time></trkpt><trkpt lat="43.102035" lon="19.081580"><ele>2018.7</ele><time>2026-07-12T09:47:36Z</time></trkpt><trkpt lat="43.102795" lon="19.081283"><ele>2031.2</ele><time>2026-07-12T09:47:48Z</time></trkpt><trkpt lat="43.103550" lon="19.080968"><ele>2042.7</ele><time>2026-07-12T09:48:00Z</time></trkpt><trkpt lat="43.104296" lon="19.080636"><ele>2053.3</ele><time>2026-07-12T09:48:12Z</time></trkpt><trkpt lat="43.105034" lon="19.080290"><ele>2062.9</ele><time>2026-07-12T09:48:24Z</time></trkpt><trkpt lat="43.105761" lon="19.079932"><ele>2071.4</ele><time>2026-07-12T09:48:36Z</time></trkpt><trkpt lat="43.106478" lon="19.079565"><ele>2078.9</ele><time>2026-07-12T09:48:48Z</time></trkpt><trkpt lat="43.107183" lon="19.079190"><ele>2085.3</ele><time>2026-07-12T09:49:00Z</time></trkpt><trkpt lat="43.107875" lon="19.078809"><ele>2090.6</ele><time>2026-07-12T09:49:12Z</time></trkpt><trkpt lat="43.108553" lon="19.078426"><ele>2094.7</ele><time>2026-07-12T09:49:24Z</time></trkpt><trkpt lat="43.109217" lon="19.078043"><ele>2097.6</ele><time>2026-07-12T09:49:36Z</time></trkpt><trkpt lat="43.109866" lon="19.077662"><ele>2099.4</ele><time>2026-07-12T09:49:48Z</time></trkpt><trkpt lat="43.110500" lon="19.077285"><ele>2100.0</ele><time>2026-07-12T09:50:00Z</time></trkpt><trkpt lat="43.111118" lon="19.076915"><ele>2099.4</ele><time>2026-07-12T09:50:12Z</time></trkpt><trkpt lat="43.111719" lon="19.076554"><ele>2097.6</ele><time>2026-07-12T09:50:24Z</time></trkpt><trkpt lat="43.112304" lon="19.076204"><ele>2094.7</ele><time>2026-07-12T09:50:36Z</time></trkpt><trkpt lat="43.112872" lon="19.075869"><ele>2090.6</ele><time>2026-07-12T09:50:48Z</time></trkpt><trkpt lat="43.113423" lon="19.075549"><ele>2085.3</ele><time>2026-07-12T09:51:00Z</time></trkpt><trkpt lat="43.113957" lon="19.075247"><ele>2078.9</ele><time>2026-07-12T09:51:12Z</time></trkpt><trkpt lat="43.114473" lon="19.074965"><ele>2071.4</ele><time>2026-07-12T09:51:24Z</time></trkpt><trkpt lat="43.114973" lon="19.074706"><ele>2062.9</ele><time>2026-07-12T09:51:36Z</time></trkpt><trkpt lat="43.115457" lon="19.074471"><ele>2053.3</ele><time>2026-07-12T09:51:48Z</time></trkpt><trkpt lat="43.115924" lon="19.074262"><ele>2042.7</ele><time>2026-07-12T09:52:00Z</time></trkpt><trkpt lat="43.116375" lon="19.074081"><ele>2031.2</ele><time>2026-07-12T09:52:12Z</time></trkpt><trkpt lat="43.116810" lon="19.073929"><ele>2018.7</ele><time>2026-07-12T09:52:24Z</time></trkpt><trkpt lat="43.117230" lon="19.073808"><ele>2005.4</ele><time>2026-07-12T09:52:36Z</time></trkpt><trkpt lat="43.117636" lon="19.073720"><ele>1991.2</ele><time>2026-07-12T09:52:48Z</time></trkpt><trkpt lat="43.118027" lon="19.073666"><ele>1976.3</ele><time>2026-07-12T09:53:00Z</time></trkpt><trkpt lat="43.118406" lon="19.073647"><ele>1960.7</ele><time>2026-07-12T09:53:12Z</time></trkpt><trkpt lat="43.118772" lon="19.073663"><ele>1944.5</ele><time>2026-07-12T09:53:24Z</time></trkpt><trkpt lat="43.119126" lon="19.073717"><ele>1927.7</ele><time>2026-07-12T09:53:36Z</time></trkpt><trkpt lat="43.119469" lon="19.073809"><ele>1910.4</ele><time>2026-07-12T09:53:48Z</time></trkpt><trkpt lat="43.119802" lon="19.073939"><ele>1892.7</ele><time>2026-07-12T09:54:00Z</time></trkpt><trkpt lat="43.120127" lon="19.074108"><ele>1874.6</ele><time>2026-07-12T09:54:12Z</time></trkpt><trkpt lat="43.120443" lon="19.074316"><ele>1856.2</ele><time>2026-07-12T09:54:24Z</time></trkpt><trkpt lat="43.120752" lon="19.074564"><ele>1837.6</ele><time>2026-07-12T09:54:36Z</time></trkpt><trkpt lat="43.121055" lon="19.074852"><ele>1818.8</ele><time>2026-07-12T09:54:48Z</time></trkpt><trkpt lat="43.121353" lon="19.075179"><ele>1800.0</ele><time>2026-07-12T09:55:00Z</time></trkpt><trkpt lat="43.121647" lon="19.075545"><ele>1781.2</ele><time>2026-07-12T09:55:12Z</time></trkpt><trkpt lat="43.121938" lon="19.075950"><ele>1762.4</ele><time>2026-07-12T09:55:24Z</time></trkpt><trkpt lat="43.122228" lon="19.076393"><ele>1743.8</ele><time>2026-07-12T09:55:36Z</time></trkpt><trkpt lat="43.122516" lon="19.076874"><ele>1725.4</ele><time>2026-07-12T09:55:48Z</time></trkpt><trkpt lat="43.122805" lon="19.077392"><ele>1707.3</ele><time>2026-07-12T09:56:00Z</time></trkpt><trkpt lat="43.123095" lon="19.077945"><ele>1689.6</ele><time>2026-07-12T09:56:12Z</time></trkpt><trkpt lat="43.123387" lon="19.078533"><ele>1672.3</ele><time>2026-07-12T09:56:24Z</time></trkpt><trkpt lat="43.123683" lon="19.079155"><ele>1655.5</ele><time>2026-07-12T09:56:36Z</time></trkpt><trkpt lat="43.123983" lon="19.079808"><ele>1639.3</ele><time>2026-07-12T09:56:48Z</time></trkpt><trkpt lat="43.124288" lon="19.080491"><ele>1623.7</ele><time>2026-07-12T09:57:00Z</time></trkpt><trkpt lat="43.124599" lon="19.081203"><ele>1608.8</ele><time>2026-07-12T09:57:12Z</time></trkpt><trkpt lat="43.124918" lon="19.081942"><ele>1594.6</ele><time>2026-07-12T09:57:24Z</time></trkpt><trkpt lat="43.125244" lon="19.082706"><ele>1581.3</ele><time>2026-07-12T09:57:36Z</time></trkpt><trkpt lat="43.125579" lon="19.083493"><ele>1568.8</ele><time>2026-07-12T09:57:48Z</time></trkpt><trkpt lat="43.125923" lon="19.084301"><ele>1557.3</ele><time>2026-07-12T09:58:00Z</time></trkpt><trkpt lat="43.126278" lon="19.085127"><ele>1546.7</ele><time>2026-07-12T09:58:12Z</time></trkpt><trkpt lat="43.126643" lon="19.085970"><ele>1537.1</ele><time>2026-07-12T09:58:24Z</time></trkpt><trkpt lat="43.127019" lon="19.086826"><ele>1528.6</ele><time>2026-07-12T09:58:36Z</time></trkpt><trkpt lat="43.127407" lon="19.087694"><ele>1521.1</ele><time>2026-07-12T09:58:48Z</time></trkpt><trkpt lat="43.127807" lon="19.088571"><ele>1514.7</ele><time>2026-07-12T09:59:00Z</time></trkpt><trkpt lat="43.128220" lon="19.089455"><ele>1509.4</ele><time>2026-07-12T09:59:12Z</time></trkpt><trkpt lat="43.128645" lon="19.090342"><ele>1505.3</ele><time>2026-07-12T09:59:24Z</time></trkpt><trkpt lat="43.129084" lon="19.091230"><ele>1502.4</ele><time>2026-07-12T09:59:36Z</time></trkpt><trkpt lat="43.129535" lon="19.092117"><ele>1500.6</ele><time>2026-07-12T09:59:48Z</time></trkpt></trkseg></trk></gpx>
